[{"OBJECT_NAME":"ONEWEB-0415","OBJECT_ID":"2022-012C","EPOCH":"2026-03-09T23:22:33.866112","MEAN_MOTION":13.10370249,"ECCENTRICITY":0.00021334,"INCLINATION":87.8769,"RA_OF_ASC_NODE":56.0185,"ARG_OF_PERICENTER":86.5099,"MEAN_ANOMALY":273.6272,"EPHEMERIS_TYPE":0,"CLASSIFICATION_TYPE":"U","NORAD_CAT_ID":51624,"ELEMENT_SET_NO":999,"REV_AT_EPOCH":19629,"BSTAR":-0.00090798506,"MEAN_MOTION_DOT":-3.04e-6,"MEAN_MOTION_DDOT":0},{"OBJECT_NAME":"COSMOS 1174 DEB","OBJECT_ID":"1980-030K","EPOCH":"2026-03-09T19:16:08.602176","MEAN_MOTION":13.91535255,"ECCENTRICITY":0.04307717,"INCLINATION":66.4753,"RA_OF_ASC_NODE":241.413,"ARG_OF_PERICENTER":19.7566,"MEAN_ANOMALY":341.9633,"EPHEMERIS_TYPE":0,"CLASSIFICATION_TYPE":"U","NORAD_CAT_ID":11778,"ELEMENT_SET_NO":999,"REV_AT_EPOCH":27008,"BSTAR":0.00071366471,"MEAN_MOTION_DOT":1.846e-5,"MEAN_MOTION_DDOT":0}]
